[{"OBJECT_NAME":"RASSVET-3 1","OBJECT_ID":"2026-061A","EPOCH":"2026-04-15T06:35:36.489696","MEAN_MOTION":15.86465951,"ECCENTRICITY":0.00210635,"INCLINATION":82.294,"RA_OF_ASC_NODE":83.1803,"ARG_OF_PERICENTER":352.6903,"MEAN_ANOMALY":7.4056,"EPHEMERIS_TYPE":0,"CLASSIFICATION_TYPE":"U","NORAD_CAT_ID":68360,"ELEMENT_SET_NO":999,"REV_AT_EPOCH":358,"BSTAR":0.00021911532,"MEAN_MOTION_DOT":0.00056056,"MEAN_MOTION_DDOT":-5.3189e-8},{"OBJECT_NAME":"RASSVET-3 2","OBJECT_ID":"2026-061B","EPOCH":"2026-04-15T06:16:54.505344","MEAN_MOTION":15.90930629,"ECCENTRICITY":0.00224836,"INCLINATION":82.2961,"RA_OF_ASC_NODE":83.1655,"ARG_OF_PERICENTER":349.3432,"MEAN_ANOMALY":10.7361,"EPHEMERIS_TYPE":0,"CLASSIFICATION_TYPE":"U","NORAD_CAT_ID":68361,"ELEMENT_SET_NO":999,"REV_AT_EPOCH":358,"BSTAR":0.00024770902,"MEAN_MOTION_DOT":0.00079322,"MEAN_MOTION_DDOT":1.098108e-6},{"OBJECT_NAME":"RASSVET-3 3","OBJECT_ID":"2026-061C","EPOCH":"2026-04-15T06:16:38.152416","MEAN_MOTION":15.90932785,"ECCENTRICITY":0.00222115,"INCLINATION":82.296,"RA_OF_ASC_NODE":83.1647,"ARG_OF_PERICENTER":349.165,"MEAN_ANOMALY":10.914,"EPHEMERIS_TYPE":0,"CLASSIFICATION_TYPE":"U","NORAD_CAT_ID":68362,"ELEMENT_SET_NO":999,"REV_AT_EPOCH":358,"BSTAR":0.00024415105,"MEAN_MOTION_DOT":0.00078153,"MEAN_MOTION_DDOT":1.03318e-6},{"OBJECT_NAME":"RASSVET-3 4","OBJECT_ID":"2026-061D","EPOCH":"2026-04-15T06:17:19.039488","MEAN_MOTION":15.90729516,"ECCENTRICITY":0.00226816,"INCLINATION":82.2965,"RA_OF_ASC_NODE":83.1666,"ARG_OF_PERICENTER":349.2644,"MEAN_ANOMALY":10.814,"EPHEMERIS_TYPE":0,"CLASSIFICATION_TYPE":"U","NORAD_CAT_ID":68363,"ELEMENT_SET_NO":999,"REV_AT_EPOCH":358,"BSTAR":0.00027134005,"MEAN_MOTION_DOT":0.00086002,"MEAN_MOTION_DDOT":1.482996e-6},{"OBJECT_NAME":"RASSVET-3 5","OBJECT_ID":"2026-061E","EPOCH":"2026-04-15T06:16:21.718272","MEAN_MOTION":15.90878968,"ECCENTRICITY":0.00223324,"INCLINATION":82.2961,"RA_OF_ASC_NODE":83.1644,"ARG_OF_PERICENTER":349.1368,"MEAN_ANOMALY":10.9418,"EPHEMERIS_TYPE":0,"CLASSIFICATION_TYPE":"U","NORAD_CAT_ID":68364,"ELEMENT_SET_NO":999,"REV_AT_EPOCH":358,"BSTAR":0.00024353714,"MEAN_MOTION_DOT":0.00077762,"MEAN_MOTION_DDOT":1.010492e-6},{"OBJECT_NAME":"RASSVET-3 6","OBJECT_ID":"2026-061F","EPOCH":"2026-04-15T06:14:06.955008","MEAN_MOTION":15.91033943,"ECCENTRICITY":0.00221168,"INCLINATION":82.2961,"RA_OF_ASC_NODE":83.1624,"ARG_OF_PERICENTER":349.2471,"MEAN_ANOMALY":10.8325,"EPHEMERIS_TYPE":0,"CLASSIFICATION_TYPE":"U","NORAD_CAT_ID":68365,"ELEMENT_SET_NO":999,"REV_AT_EPOCH":358,"BSTAR":0.00024408921,"MEAN_MOTION_DOT":0.00078524,"MEAN_MOTION_DDOT":1.05591e-6},{"OBJECT_NAME":"RASSVET-3 7","OBJECT_ID":"2026-061G","EPOCH":"2026-04-15T06:15:40.959072","MEAN_MOTION":15.90912922,"ECCENTRICITY":0.00220974,"INCLINATION":82.296,"RA_OF_ASC_NODE":83.164,"ARG_OF_PERICENTER":349.1658,"MEAN_ANOMALY":10.9135,"EPHEMERIS_TYPE":0,"CLASSIFICATION_TYPE":"U","NORAD_CAT_ID":68366,"ELEMENT_SET_NO":999,"REV_AT_EPOCH":358,"BSTAR":0.00024187993,"MEAN_MOTION_DOT":0.00077333,"MEAN_MOTION_DDOT":9.87706e-7},{"OBJECT_NAME":"RASSVET-3 8","OBJECT_ID":"2026-061H","EPOCH":"2026-04-15T06:16:03.703008","MEAN_MOTION":15.9088161,"ECCENTRICITY":0.00222005,"INCLINATION":82.2962,"RA_OF_ASC_NODE":83.1642,"ARG_OF_PERICENTER":348.9626,"MEAN_ANOMALY":11.1156,"EPHEMERIS_TYPE":0,"CLASSIFICATION_TYPE":"U","NORAD_CAT_ID":68367,"ELEMENT_SET_NO":999,"REV_AT_EPOCH":358,"BSTAR":0.00024409364,"MEAN_MOTION_DOT":0.00077929,"MEAN_MOTION_DDOT":1.019712e-6},{"OBJECT_NAME":"RASSVET-3 9","OBJECT_ID":"2026-061J","EPOCH":"2026-04-15T06:08:04.638336","MEAN_MOTION":15.91395093,"ECCENTRICITY":0.00215637,"INCLINATION":82.2951,"RA_OF_ASC_NODE":83.1536,"ARG_OF_PERICENTER":350.4677,"MEAN_ANOMALY":9.6183,"EPHEMERIS_TYPE":0,"CLASSIFICATION_TYPE":"U","NORAD_CAT_ID":68368,"ELEMENT_SET_NO":999,"REV_AT_EPOCH":358,"BSTAR":0.00024220742,"MEAN_MOTION_DOT":0.00079291,"MEAN_MOTION_DDOT":1.106775e-6},{"OBJECT_NAME":"RASSVET-3 10","OBJECT_ID":"2026-061K","EPOCH":"2026-04-15T06:15:34.756416","MEAN_MOTION":15.90818899,"ECCENTRICITY":0.00221857,"INCLINATION":82.2963,"RA_OF_ASC_NODE":83.1641,"ARG_OF_PERICENTER":349.0082,"MEAN_ANOMALY":11.0702,"EPHEMERIS_TYPE":0,"CLASSIFICATION_TYPE":"U","NORAD_CAT_ID":68369,"ELEMENT_SET_NO":999,"REV_AT_EPOCH":358,"BSTAR":0.00024171307,"MEAN_MOTION_DOT":0.00076923,"MEAN_MOTION_DDOT":9.63386e-7},{"OBJECT_NAME":"RASSVET-3 11","OBJECT_ID":"2026-061L","EPOCH":"2026-04-15T06:14:47.373792","MEAN_MOTION":15.90844582,"ECCENTRICITY":0.00219263,"INCLINATION":82.2962,"RA_OF_ASC_NODE":83.1632,"ARG_OF_PERICENTER":348.8218,"MEAN_ANOMALY":11.2563,"EPHEMERIS_TYPE":0,"CLASSIFICATION_TYPE":"U","NORAD_CAT_ID":68370,"ELEMENT_SET_NO":999,"REV_AT_EPOCH":358,"BSTAR":0.00023538815,"MEAN_MOTION_DOT":0.00074979,"MEAN_MOTION_DDOT":8.59875e-7},{"OBJECT_NAME":"RASSVET-3 12","OBJECT_ID":"2026-061M","EPOCH":"2026-04-15T06:12:23.800320","MEAN_MOTION":15.91217567,"ECCENTRICITY":0.00215595,"INCLINATION":82.296,"RA_OF_ASC_NODE":83.1605,"ARG_OF_PERICENTER":348.7339,"MEAN_ANOMALY":11.3448,"EPHEMERIS_TYPE":0,"CLASSIFICATION_TYPE":"U","NORAD_CAT_ID":68371,"ELEMENT_SET_NO":999,"REV_AT_EPOCH":358,"BSTAR":0.00026319951,"MEAN_MOTION_DOT":0.0008535,"MEAN_MOTION_DDOT":1.456875e-6},{"OBJECT_NAME":"RASSVET-3 13","OBJECT_ID":"2026-061N","EPOCH":"2026-04-15T06:11:33.182880","MEAN_MOTION":15.91289759,"ECCENTRICITY":0.00211412,"INCLINATION":82.2955,"RA_OF_ASC_NODE":83.1591,"ARG_OF_PERICENTER":348.7508,"MEAN_ANOMALY":11.3289,"EPHEMERIS_TYPE":0,"CLASSIFICATION_TYPE":"U","NORAD_CAT_ID":68372,"ELEMENT_SET_NO":999,"REV_AT_EPOCH":358,"BSTAR":0.00024443775,"MEAN_MOTION_DOT":0.0007952,"MEAN_MOTION_DDOT":1.117595e-6},{"OBJECT_NAME":"RASSVET-3 14","OBJECT_ID":"2026-061P","EPOCH":"2026-04-15T06:10:02.087040","MEAN_MOTION":15.91391582,"ECCENTRICITY":0.00211945,"INCLINATION":82.296,"RA_OF_ASC_NODE":83.1579,"ARG_OF_PERICENTER":348.5432,"MEAN_ANOMALY":11.5355,"EPHEMERIS_TYPE":0,"CLASSIFICATION_TYPE":"U","NORAD_CAT_ID":68373,"ELEMENT_SET_NO":999,"REV_AT_EPOCH":358,"BSTAR":0.00024790623,"MEAN_MOTION_DOT":0.00081074,"MEAN_MOTION_DDOT":1.208673e-6},{"OBJECT_NAME":"RASSVET-3 15","OBJECT_ID":"2026-061Q","EPOCH":"2026-04-15T06:08:26.031840","MEAN_MOTION":15.91570757,"ECCENTRICITY":0.00207714,"INCLINATION":82.2955,"RA_OF_ASC_NODE":83.1557,"ARG_OF_PERICENTER":348.662,"MEAN_ANOMALY":11.4181,"EPHEMERIS_TYPE":0,"CLASSIFICATION_TYPE":"U","NORAD_CAT_ID":68374,"ELEMENT_SET_NO":999,"REV_AT_EPOCH":358,"BSTAR":0.00024753914,"MEAN_MOTION_DOT":0.00081637,"MEAN_MOTION_DDOT":1.245668e-6},{"OBJECT_NAME":"RASSVET-3 16","OBJECT_ID":"2026-061R","EPOCH":"2026-04-15T06:49:09.721920","MEAN_MOTION":15.83848176,"ECCENTRICITY":0.00200396,"INCLINATION":82.2941,"RA_OF_ASC_NODE":83.1943,"ARG_OF_PERICENTER":357.8814,"MEAN_ANOMALY":2.2366,"EPHEMERIS_TYPE":0,"CLASSIFICATION_TYPE":"U","NORAD_CAT_ID":68375,"ELEMENT_SET_NO":999,"REV_AT_EPOCH":358,"BSTAR":0.0001976927,"MEAN_MOTION_DOT":0.00044528,"MEAN_MOTION_DDOT":0}]
