RASSVET-3 1             
1 68360U 26061A   26105.27472789  .00056056 -53189-7  21912-3 0  9992
2 68360  82.2940  83.1803 0021063 352.6903   7.4056 15.86465951  3581
RASSVET-3 2             
1 68361U 26061B   26105.26174196  .00079322  10981-5  24771-3 0  9990
2 68361  82.2961  83.1655 0022483 349.3432  10.7361 15.90930629  3587
RASSVET-3 3             
1 68362U 26061C   26105.26155269  .00078153  10332-5  24415-3 0  9997
2 68362  82.2960  83.1647 0022211 349.1650  10.9140 15.90932785  3589
RASSVET-3 4             
1 68363U 26061D   26105.26202592  .00086002  14830-5  27134-3 0  9990
2 68363  82.2965  83.1666 0022681 349.2644  10.8140 15.90729516  3586
RASSVET-3 5             
1 68364U 26061E   26105.26136248  .00077762  10105-5  24354-3 0  9990
2 68364  82.2961  83.1644 0022332 349.1368  10.9418 15.90878968  3589
RASSVET-3 6             
1 68365U 26061F   26105.25980272  .00078524  10559-5  24409-3 0  9995
2 68365  82.2961  83.1624 0022116 349.2471  10.8325 15.91033943  3587
RASSVET-3 7             
1 68366U 26061G   26105.26089073  .00077333  98771-6  24188-3 0  9990
2 68366  82.2960  83.1640 0022097 349.1658  10.9135 15.90912922  3581
RASSVET-3 8             
1 68367U 26061H   26105.26115397  .00077929  10197-5  24409-3 0  9992
2 68367  82.2962  83.1642 0022200 348.9626  11.1156 15.90881610  3589
RASSVET-3 9             
1 68368U 26061J   26105.25560924  .00079291  11068-5  24221-3 0  9996
2 68368  82.2951  83.1536 0021563 350.4677   9.6183 15.91395093  3583
RASSVET-3 10            
1 68369U 26061K   26105.26081894  .00076923  96339-6  24171-3 0  9990
2 68369  82.2963  83.1641 0022185 349.0082  11.0702 15.90818899  3586
RASSVET-3 11            
1 68370U 26061L   26105.26027053  .00074979  85987-6  23539-3 0  9992
2 68370  82.2962  83.1632 0021926 348.8218  11.2563 15.90844582  3582
RASSVET-3 12            
1 68371U 26061M   26105.25860880  .00085350  14569-5  26320-3 0  9998
2 68371  82.2960  83.1605 0021559 348.7339  11.3448 15.91217567  3587
RASSVET-3 13            
1 68372U 26061N   26105.25802295  .00079520  11176-5  24444-3 0  9993
2 68372  82.2955  83.1591 0021141 348.7508  11.3289 15.91289759  3586
RASSVET-3 14            
1 68373U 26061P   26105.25696860  .00081074  12087-5  24791-3 0  9997
2 68373  82.2960  83.1579 0021194 348.5432  11.5355 15.91391582  3585
RASSVET-3 15            
1 68374U 26061Q   26105.25585685  .00081637  12457-5  24754-3 0  9995
2 68374  82.2955  83.1557 0020771 348.6620  11.4181 15.91570757  3585
RASSVET-3 16            
1 68375U 26061R   26105.28414030  .00044528  00000+0  19769-3 0  9997
2 68375  82.2941  83.1943 0020039 357.8814   2.2366 15.83848176  3581
